IRIDIUM 136             
1 42962U 17061H   23256.02870107  .00000213  00000+0  68970-4 0  9990
2 42962  86.3912  86.5870 0002265  92.3556 267.7899 14.34218727310330
